{"type": "FeatureCollection", "features": [ {"type": "Feature", "properties": {"norad_id": 29782, "name": "FENGYUN 1C DEB", "group": "fengyun-1c-debris", "lat": 71.08992448043406, "lon": -115.58113855963664, "alt_km": 858.1360154008016, "timestamp": "2025-12-08T23:34:04.240592+00:00", "meta": {"OBJECT_NAME": "FENGYUN 1C DEB", "OBJECT_ID": "1999-025BY", "EPOCH": "2025-12-08T15:07:59.240064", "MEAN_MOTION": 14.11633193, "ECCENTRICITY": 0.00553008, "INCLINATION": 99.0997, "RA_OF_ASC_NODE": 36.1683, "ARG_OF_PERICENTER": 214.2621, "MEAN_ANOMALY": 267.9346, "EPHEMERIS_TYPE": 0, "CLASSIFICATION_TYPE": "U", "NORAD_CAT_ID": 29782, "ELEMENT_SET_NO": 999, "REV_AT_EPOCH": 96613, "BSTAR": 0.0021885627, "MEAN_MOTION_DOT": 3.992e-05, "MEAN_MOTION_DDOT": 0}, "tle": {"line1": "1 29782U 99025BY  25342.63054676  .00003992  00000+0  21886-2 0  9995", "line2": "2 29782  99.0997  36.1683 0055300 214.2621 267.9346 14.11633193966135"}}, "geometry": {"type": "Point", "coordinates": [-115.58113855963664, 71.08992448043406]}}, {"type": "Feature", "properties": {"norad_id": 29784, "name": "FENGYUN 1C DEB", "group": "fengyun-1c-debris", "lat": 4.702950045918592, "lon": -99.07039463690039, "alt_km": 768.2615178528722, "timestamp": "2025-12-08T23:34:04.240603+00:00", "meta": {"OBJECT_NAME": "FENGYUN 1C DEB", "OBJECT_ID": "1999-025CA", "EPOCH": "2025-12-08T07:19:03.353952", "MEAN_MOTION": 14.30564016, "ECCENTRICITY": 0.00596445, "INCLINATION": 98.9451, "RA_OF_ASC_NODE": 260.9759, "ARG_OF_PERICENTER": 310.4802, "MEAN_ANOMALY": 168.7436, "EPHEMERIS_TYPE": 0, "CLASSIFICATION_TYPE": "U", "NORAD_CAT_ID": 29784, "ELEMENT_SET_NO": 999, "REV_AT_EPOCH": 98296, "BSTAR": 0.0010354719, "MEAN_MOTION_DOT": 2.707e-05, "MEAN_MOTION_DDOT": 0}, "tle": {"line1": "1 29784U 99025CA  25342.30489993  .00002707  00000+0  10355-2 0  9997", "line2": "2 29784  98.9451 260.9759 0059644 310.4802 168.7436 14.30564016982961"}}, "geometry": {"type": "Point", "coordinates": [-99.07039463690039, 4.702950045918592]}}, {"type": "Feature", "properties": {"norad_id": 29786, "name": "FENGYUN 1C DEB", "group": "fengyun-1c-debris", "lat": -52.408729384280214, "lon": 168.79295715561966, "alt_km": 859.8866141685276, "timestamp": "2025-12-08T23:34:04.240613+00:00", "meta": {"OBJECT_NAME": "FENGYUN 1C DEB", "OBJECT_ID": "1999-025CC", "EPOCH": "2025-12-08T14:31:48.855648", "MEAN_MOTION": 14.09080794, "ECCENTRICITY": 0.00771467, "INCLINATION": 98.7359, "RA_OF_ASC_NODE": 359.9487, "ARG_OF_PERICENTER": 314.8705, "MEAN_ANOMALY": 170.074, "EPHEMERIS_TYPE": 0, "CLASSIFICATION_TYPE": "U", "NORAD_CAT_ID": 29786, "ELEMENT_SET_NO": 999, "REV_AT_EPOCH": 97102, "BSTAR": 0.00029002086, "MEAN_MOTION_DOT": 4.74e-06, "MEAN_MOTION_DDOT": 0}, "tle": {"line1": "1 29786U 99025CC  25342.60542657  .00000474  00000+0  29002-3 0  9998", "line2": "2 29786  98.7359 359.9487 0077146 314.8705 170.0740 14.09080794971023"}}, "geometry": {"type": "Point", "coordinates": [168.79295715561966, -52.408729384280214]}}, {"type": "Feature", "properties": {"norad_id": 29788, "name": "FENGYUN 1C DEB", "group": "fengyun-1c-debris", "lat": -58.01737632633562, "lon": 68.93209033192414, "alt_km": 818.4183656475961, "timestamp": "2025-12-08T23:34:04.240624+00:00", "meta": {"OBJECT_NAME": "FENGYUN 1C DEB", "OBJECT_ID": "1999-025CE", "EPOCH": "2025-12-08T15:59:57.138720", "MEAN_MOTION": 14.25923942, "ECCENTRICITY": 0.00429734, "INCLINATION": 98.7837, "RA_OF_ASC_NODE": 54.2803, "ARG_OF_PERICENTER": 200.452, "MEAN_ANOMALY": 282.0734, "EPHEMERIS_TYPE": 0, "CLASSIFICATION_TYPE": "U", "NORAD_CAT_ID": 29788, "ELEMENT_SET_NO": 999, "REV_AT_EPOCH": 97297, "BSTAR": 0.0025315145, "MEAN_MOTION_DOT": 6.05e-05, "MEAN_MOTION_DDOT": 0}, "tle": {"line1": "1 29788U 99025CE  25342.66663355  .00006050  00000+0  25315-2 0  9993", "line2": "2 29788  98.7837  54.2803 0042973 200.4520 282.0734 14.25923942972979"}}, "geometry": {"type": "Point", "coordinates": [68.93209033192414, -58.01737632633562]}}, {"type": "Feature", "properties": {"norad_id": 29789, "name": "FENGYUN 1C DEB", "group": "fengyun-1c-debris", "lat": -22.34109094501191, "lon": 169.86055691037816, "alt_km": 913.1784949220782, "timestamp": "2025-12-08T23:34:04.240635+00:00", "meta": {"OBJECT_NAME": "FENGYUN 1C DEB", "OBJECT_ID": "1999-025CF", "EPOCH": "2025-12-08T11:23:55.481280", "MEAN_MOTION": 13.54225994, "ECCENTRICITY": 0.02983503, "INCLINATION": 99.4516, "RA_OF_ASC_NODE": 165.4499, "ARG_OF_PERICENTER": 289.5595, "MEAN_ANOMALY": 94.6573, "EPHEMERIS_TYPE": 0, "CLASSIFICATION_TYPE": "U", "NORAD_CAT_ID": 29789, "ELEMENT_SET_NO": 999, "REV_AT_EPOCH": 92930, "BSTAR": 0.0022707485, "MEAN_MOTION_DOT": 2.006e-05, "MEAN_MOTION_DDOT": 0}, "tle": {"line1": "1 29789U 99025CF  25342.47494770  .00002006  00000+0  22707-2 0  9995", "line2": "2 29789  99.4516 165.4499 0298350 289.5595  94.6573 13.54225994929300"}}, "geometry": {"type": "Point", "coordinates": [169.86055691037816, -22.34109094501191]}}, {"type": "Feature", "properties": {"norad_id": 29790, "name": "FENGYUN 1C DEB", "group": "fengyun-1c-debris", "lat": 50.00208288923098, "lon": 167.87429692524861, "alt_km": 750.6294147130156, "timestamp": "2025-12-08T23:34:04.240645+00:00", "meta": {"OBJECT_NAME": "FENGYUN 1C DEB", "OBJECT_ID": "1999-025CG", "EPOCH": "2025-12-08T12:54:13.144032", "MEAN_MOTION": 14.32259773, "ECCENTRICITY": 0.00763009, "INCLINATION": 99.1471, "RA_OF_ASC_NODE": 336.3346, "ARG_OF_PERICENTER": 188.7327, "MEAN_ANOMALY": 171.2533, "EPHEMERIS_TYPE": 0, "CLASSIFICATION_TYPE": "U", "NORAD_CAT_ID": 29790, "ELEMENT_SET_NO": 999, "REV_AT_EPOCH": 98465, "BSTAR": 0.00053195165, "MEAN_MOTION_DOT": 1.433e-05, "MEAN_MOTION_DDOT": 0}, "tle": {"line1": "1 29790U 99025CG  25342.53765213  .00001433  00000+0  53195-3 0  9996", "line2": "2 29790  99.1471 336.3346 0076300 188.7327 171.2533 14.32259773984657"}}, "geometry": {"type": "Point", "coordinates": [167.87429692524861, 50.00208288923098]}}, {"type": "Feature", "properties": {"norad_id": 29791, "name": "FENGYUN 1C DEB", "group": "fengyun-1c-debris", "lat": 67.35983559443572, "lon": -39.22628401397025, "alt_km": 663.095532870806, "timestamp": "2025-12-08T23:34:04.240655+00:00", "meta": {"OBJECT_NAME": "FENGYUN 1C DEB", "OBJECT_ID": "1999-025CH", "EPOCH": "2025-12-08T13:55:03.393696", "MEAN_MOTION": 14.58156524, "ECCENTRICITY": 0.00416513, "INCLINATION": 99.0361, "RA_OF_ASC_NODE": 342.7665, "ARG_OF_PERICENTER": 74.2782, "MEAN_ANOMALY": 45.4299, "EPHEMERIS_TYPE": 0, "CLASSIFICATION_TYPE": "U", "NORAD_CAT_ID": 29791, "ELEMENT_SET_NO": 999, "REV_AT_EPOCH": 98785, "BSTAR": 0.0021364762, "MEAN_MOTION_DOT": 9.925e-05, "MEAN_MOTION_DDOT": 0}, "tle": {"line1": "1 29791U 99025CH  25342.57990039  .00009925  00000+0  21365-2 0  9994", "line2": "2 29791  99.0361 342.7665 0041651  74.2782  45.4299 14.58156524987859"}}, "geometry": {"type": "Point", "coordinates": [-39.22628401397025, 67.35983559443572]}}, {"type": "Feature", "properties": {"norad_id": 29792, "name": "FENGYUN 1C DEB", "group": "fengyun-1c-debris", "lat": -48.49067492371674, "lon": 43.6441003222419, "alt_km": 852.4819957823993, "timestamp": "2025-12-08T23:34:04.240666+00:00", "meta": {"OBJECT_NAME": "FENGYUN 1C DEB", "OBJECT_ID": "1999-025CJ", "EPOCH": "2025-12-08T03:26:11.818176", "MEAN_MOTION": 14.1512079, "ECCENTRICITY": 0.00482407, "INCLINATION": 98.7568, "RA_OF_ASC_NODE": 32.7911, "ARG_OF_PERICENTER": 49.747, "MEAN_ANOMALY": 310.7907, "EPHEMERIS_TYPE": 0, "CLASSIFICATION_TYPE": "U", "NORAD_CAT_ID": 29792, "ELEMENT_SET_NO": 999, "REV_AT_EPOCH": 96874, "BSTAR": 0.0017607226, "MEAN_MOTION_DOT": 3.412e-05, "MEAN_MOTION_DDOT": 0}, "tle": {"line1": "1 29792U 99025CJ  25342.14319234  .00003412  00000+0  17607-2 0  9999", "line2": "2 29792  98.7568  32.7911 0048240  49.7470 310.7907 14.15120790968747"}}, "geometry": {"type": "Point", "coordinates": [43.6441003222419, -48.49067492371674]}}, {"type": "Feature", "properties": {"norad_id": 29793, "name": "FENGYUN 1C DEB", "group": "fengyun-1c-debris", "lat": 56.82642675454565, "lon": -4.935256826398121, "alt_km": 955.5191073001697, "timestamp": "2025-12-08T23:34:04.240676+00:00", "meta": {"OBJECT_NAME": "FENGYUN 1C DEB", "OBJECT_ID": "1999-025CK", "EPOCH": "2025-12-08T11:07:45.726816", "MEAN_MOTION": 14.01058694, "ECCENTRICITY": 0.01439019, "INCLINATION": 98.3548, "RA_OF_ASC_NODE": 161.5995, "ARG_OF_PERICENTER": 350.3691, "MEAN_ANOMALY": 37.9892, "EPHEMERIS_TYPE": 0, "CLASSIFICATION_TYPE": "U", "NORAD_CAT_ID": 29793, "ELEMENT_SET_NO": 999, "REV_AT_EPOCH": 96089, "BSTAR": 0.0015284757, "MEAN_MOTION_DOT": 2.469e-05, "MEAN_MOTION_DDOT": 0}, "tle": {"line1": "1 29793U 99025CK  25342.46372369  .00002469  00000+0  15285-2 0  9994", "line2": "2 29793  98.3548 161.5995 0143901 350.3691  37.9892 14.01058694960898"}}, "geometry": {"type": "Point", "coordinates": [-4.935256826398121, 56.82642675454565]}}, {"type": "Feature", "properties": {"norad_id": 29794, "name": "FENGYUN 1C DEB", "group": "fengyun-1c-debris", "lat": -38.26965809369768, "lon": 148.48361023881057, "alt_km": 867.2417652010272, "timestamp": "2025-12-08T23:34:04.240686+00:00", "meta": {"OBJECT_NAME": "FENGYUN 1C DEB", "OBJECT_ID": "1999-025CL", "EPOCH": "2025-12-08T10:22:13.070208", "MEAN_MOTION": 14.08985178, "ECCENTRICITY": 0.01572756, "INCLINATION": 98.1995, "RA_OF_ASC_NODE": 141.4516, "ARG_OF_PERICENTER": 52.8396, "MEAN_ANOMALY": 2.626, "EPHEMERIS_TYPE": 0, "CLASSIFICATION_TYPE": "U", "NORAD_CAT_ID": 29794, "ELEMENT_SET_NO": 999, "REV_AT_EPOCH": 96787, "BSTAR": 0.00088589248, "MEAN_MOTION_DOT": 1.682e-05, "MEAN_MOTION_DDOT": 0}, "tle": {"line1": "1 29794U 99025CL  25342.43209572  .00001682  00000+0  88589-3 0  9991", "line2": "2 29794  98.1995 141.4516 0157275  52.8396   2.6260 14.08985178967870"}}, "geometry": {"type": "Point", "coordinates": [148.48361023881057, -38.26965809369768]}}]}